STARLINK-30790
1 58127U 23162K   26061.02484754  .00050784  00000+0  28703-2 0  9991
2 58127  42.9995 169.9461 0010594 343.2055  16.8439 15.12308234131207
